NORAD_CAT_ID,OBJECT_NAME,OBJECT_TYPE,EPOCH,MEAN_MOTION,ECCENTRICITY,INCLINATION,RA_OF_ASC_NODE,ARG_OF_PERICENTER,MEAN_ANOMALY,BSTAR,MEAN_MOTION_DOT,MEAN_MOTION_DDOT,TLE_LINE0,TLE_LINE1,TLE_LINE2,SEMIMAJOR_AXIS,PERIOD,APOGEE,PERIGEE,DECAYED
54777.0,STARLINK-5468,PAYLOAD,2023-05-24 14:30:04,15.08840711,8.42e-05,53.2171,303.2596,125.4306,234.6764,0.00047767,7.323e-05,0.0,0 STARLINK-5468,1 54777U 22175V   23144.60422230  .00007323  00000-0  47767-3 0  9999,2 54777  53.2171 303.2596 0000842 125.4306 234.6764 15.08840711 23769,6917.878,95.438,540.326,539.161,0.0
54777.0,STARLINK-5468,PAYLOAD,2023-05-25 14:20:51,15.08842949,6.67e-05,53.2169,298.8003,111.9423,248.164,0.00031741,4.768e-05,0.0,0 STARLINK-5468,1 54777U 22175V   23145.59782354  .00004768  00000-0  31741-3 0  9999,2 54777  53.2169 298.8003 0000667 111.9423 248.1640 15.08842949 26078,6917.871,95.437,540.198,539.275,0.0
54777.0,STARLINK-5468,PAYLOAD,2023-05-25 17:31:38,15.08844755,6.75e-05,53.2169,298.2055,91.0699,269.037,0.00036031,5.452e-05,0.0,0 STARLINK-5468,1 54777U 22175V   23145.73030352  .00005452  00000-0  36031-3 0  9997,2 54777  53.2169 298.2055 0000675  91.0699 269.0370 15.08844755 23932,6917.866,95.437,540.198,539.264,0.0
54777.0,STARLINK-5468,PAYLOAD,2023-05-26 14:11:38,15.08842869,6.12e-05,53.2162,294.3397,94.4883,265.6179,0.0001562,2.199e-05,0.0,0 STARLINK-5468,1 54777U 22175V   23146.59142297  .00002199  00000-0  15620-3 0  9990,2 54777  53.2162 294.3397 0000612  94.4883 265.6179 15.08842869 26222,6917.872,95.437,540.16,539.313,0.0
54777.0,STARLINK-5468,PAYLOAD,2023-05-26 17:22:25,15.0884422,5.93e-05,53.2163,293.7449,86.7949,273.3111,0.00014865,2.079e-05,0.0,0 STARLINK-5468,1 54777U 22175V   23146.72390237  .00002079  00000-0  14865-3 0  9991,2 54777  53.2163 293.7449 0000593  86.7949 273.3111 15.08844220 24086,6917.867,95.437,540.143,539.322,0.0
54777.0,STARLINK-5468,PAYLOAD,2023-05-26 18:57:48,15.08844425,6.32e-05,53.2162,293.4475,74.0225,286.0837,0.00014442,2.012e-05,0.0,0 STARLINK-5468,1 54777U 22175V   23146.79014232  .00002012  00000-0  14442-3 0  9994,2 54777  53.2162 293.4475 0000632  74.0225 286.0837 15.08844425 26256,6917.867,95.437,540.169,539.295,0.0
54777.0,STARLINK-5468,PAYLOAD,2023-05-27 09:16:16,15.08839422,6.26e-05,53.2162,290.771,77.0134,283.0928,7.9244e-05,9.74e-06,0.0,0 STARLINK-5468,1 54777U 22175V   23147.38630526  .00000974  00000-0  79244-4 0  9997,2 54777  53.2162 290.7710 0000626  77.0134 283.0928 15.08839422 24182,6917.882,95.438,540.18,539.314,0.0
54777.0,STARLINK-5468,PAYLOAD,2023-05-27 17:13:12,15.08843378,5.66e-05,53.2163,289.284,77.4996,282.6059,8.8946e-05,1.128e-05,0.0,0 STARLINK-5468,1 54777U 22175V   23147.71750311  .00001128  00000-0  88946-4 0  9990,2 54777  53.2163 289.2840 0000566  77.4996 282.6059 15.08843378 26393,6917.87,95.437,540.127,539.344,0.0
54777.0,STARLINK-5468,PAYLOAD,2023-05-28 02:45:31,15.08843039,5.61e-05,53.2162,287.4998,74.48,285.6254,0.00010068,1.315e-05,0.0,0 STARLINK-5468,1 54777U 22175V   23148.11494322  .00001315  00000-0  10068-3 0  9999,2 54777  53.2162 287.4998 0000561  74.4800 285.6254 15.08843039 26453,6917.871,95.437,540.124,539.348,0.0
54777.0,STARLINK-5468,PAYLOAD,2023-05-28 15:28:36,15.08846899,5.77e-05,53.2162,285.1209,71.6428,288.4627,0.00016382,2.321e-05,0.0,0 STARLINK-5468,1 54777U 22175V   23148.64486116  .00002321  00000-0  16382-3 0  9992,2 54777  53.2162 285.1209 0000577  71.6428 288.4627 15.08846899 24376,6917.859,95.437,540.123,539.325,0.0
54777.0,STARLINK-5468,PAYLOAD,2023-05-29 13:44:00,15.08830067,4.99e-05,53.2175,280.9575,81.0137,279.0911,0.00014146,1.964e-05,0.0,0 STARLINK-5468,1 54777U 22175V   23149.57222866  .00001964  00000-0  14146-3 0  9993,2 54777  53.2175 280.9575 0000499  81.0137 279.0911 15.08830067 26671,6917.911,95.438,540.121,539.431,0.0
54777.0,STARLINK-5468,PAYLOAD,2023-05-29 15:19:22,15.08857856,9.39e-05,53.2179,280.6624,89.6714,270.4385,-0.00022754,-3.909e-05,0.0,0 STARLINK-5468,1 54777U 22175V   23149.63845919 -.00003909  00000-0 -22754-3 0  9997,2 54777  53.2179 280.6624 0000939  89.6714 270.4385 15.08857856 26687,6917.826,95.436,540.34,539.041,0.0
54777.0,STARLINK-5468,PAYLOAD,2023-05-30 08:48:38,15.08828314,6.37e-05,53.2187,277.3903,86.7536,273.3529,0.00016926,2.406e-05,0.0,0 STARLINK-5468,1 54777U 22175V   23150.36710778  .00002406  00000-0  16926-3 0  9996,2 54777  53.2187 277.3903 0000637  86.7536 273.3529 15.08828314 24636,6917.916,95.438,540.222,539.34,0.0
54777.0,STARLINK-5468,PAYLOAD,2023-05-30 11:59:24,15.08843973,8.02e-05,53.2185,276.7954,82.7101,277.3983,-5.4986e-05,-1.163e-05,0.0,0 STARLINK-5468,1 54777U 22175V   23150.49958351 -.00001163  00000-0 -54986-4 0  9991,2 54777  53.2185 276.7954 0000802  82.7101 277.3983 15.08843973 26819,6917.868,95.437,540.288,539.178,0.0
54777.0,STARLINK-5468,PAYLOAD,2023-05-30 18:20:56,15.08846705,8.11e-05,53.2183,275.6043,112.274,247.8339,-3.1594e-05,-7.91e-06,0.0,0 STARLINK-5468,1 54777U 22175V   23150.76454043 -.00000791  00000-0 -31594-4 0  9996,2 54777  53.2183 275.6043 0000811 112.2740 247.8339 15.08846705 24699,6917.86,95.437,540.286,539.164,0.0
54777.0,STARLINK-5468,PAYLOAD,2023-05-31 08:39:24,15.08837116,7.33e-05,53.218,272.9279,104.3832,255.7242,5.2943e-05,5.55e-06,0.0,0 STARLINK-5468,1 54777U 22175V   23151.36070468  .00000555  00000-0  52943-4 0  9995,2 54777  53.2180 272.9279 0000733 104.3832 255.7242 15.08837116 24781,6917.889,95.438,540.261,539.247,0.0
54777.0,STARLINK-5468,PAYLOAD,2023-05-31 15:00:57,15.08842387,6.74e-05,53.2178,271.7411,82.9912,277.1157,0.00011311,1.513e-05,0.0,0 STARLINK-5468,1 54777U 22175V   23151.62566045  .00001513  00000-0  11311-3 0  9993,2 54777  53.2178 271.7411 0000674  82.9912 277.1157 15.08842387 26980,6917.873,95.437,540.204,539.272,0.0
54777.0,STARLINK-5468,PAYLOAD,2023-06-01 00:33:16,15.08843829,6.62e-05,53.2169,269.957,132.7673,227.3375,-4.3037e-05,-9.73e-06,0.0,0 STARLINK-5468,1 54777U 22175V   23152.02310257 -.00000973  00000-0 -43037-4 0  9992,2 54777  53.2169 269.9570 0000662 132.7673 227.3375 15.08843829 27049,6917.869,95.437,540.192,539.276,0.0
54777.0,STARLINK-5468,PAYLOAD,2023-06-02 00:24:03,15.08844134,4.77e-05,53.2165,265.4971,71.6429,288.4615,1.5175e-05,-4.6e-07,0.0,0 STARLINK-5468,1 54777U 22175V   23153.01670273 -.00000046  00000-0  15175-4 0  9991,2 54777  53.2165 265.4971 0000477  71.6429 288.4615 15.08844134 25037,6917.868,95.437,540.063,539.403,0.0
54777.0,STARLINK-5468,PAYLOAD,2023-06-02 06:45:36,15.08834347,7.61e-05,53.2185,264.3104,77.043,283.0647,6.371e-05,7.26e-06,0.0,0 STARLINK-5468,1 54777U 22175V   23153.28166998  .00000726  00000-0  63710-4 0  9996,2 54777  53.2185 264.3104 0000761  77.0430 283.0647 15.08834347 25078,6917.898,95.438,540.289,539.236,0.0
54777.0,STARLINK-5468,PAYLOAD,2023-06-02 13:07:09,15.08826042,6.96e-05,53.2168,263.1182,100.0942,260.0129,-6.996e-05,-1.4e-05,0.0,0 STARLINK-5468,1 54777U 22175V   23153.54664096 -.00001400  00000-0 -69960-4 0  9992,2 54777  53.2168 263.1182 0000696 100.0942 260.0129 15.08826042 27271,6917.923,95.438,540.27,539.307,0.0
54777.0,STARLINK-5468,PAYLOAD,2023-06-02 16:17:55,15.08832371,7.06e-05,53.2173,262.522,68.3845,291.7222,-4.1229e-05,-9.44e-06,0.0,0 STARLINK-5468,1 54777U 22175V   23153.67911686 -.00000944  00000-0 -41229-4 0  9996,2 54777  53.2173 262.5220 0000706  68.3845 291.7222 15.08832371 25133,6917.904,95.438,540.257,539.28,0.0
54777.0,STARLINK-5468,PAYLOAD,2023-06-03 09:47:09,15.08838067,5.93e-05,53.2166,259.2512,73.0441,287.0616,0.00010456,1.377e-05,0.0,0 STARLINK-5468,1 54777U 22175V   23154.40775221  .00001377  00000-0  10456-3 0  9997,2 54777  53.2166 259.2512 0000593  73.0441 287.0616 15.08838067 25246,6917.886,95.438,540.162,539.341,0.0
54777.0,STARLINK-5468,PAYLOAD,2023-06-03 12:57:55,15.08844585,5.76e-05,53.2168,258.6562,68.8294,291.276,6.8688e-05,8.06e-06,0.0,0 STARLINK-5468,1 54777U 22175V   23154.54022939  .00000806  00000-0  68688-4 0  9990,2 54777  53.2168 258.6562 0000576  68.8294 291.2760 15.08844585 27426,6917.866,95.437,540.13,539.333,0.0
54777.0,STARLINK-5468,PAYLOAD,2023-06-03 14:33:18,15.08846524,5.99e-05,53.2168,258.3588,68.2231,291.8825,9.1209e-05,1.165e-05,0.0,0 STARLINK-5468,1 54777U 22175V   23154.60646791  .00001165  00000-0  91209-4 0  9999,2 54777  53.2168 258.3588 0000599  68.2231 291.8825 15.08846524 27435,6917.86,95.437,540.14,539.311,0.0
54777.0,STARLINK-5468,PAYLOAD,2023-06-04 12:48:43,15.08840344,6.61e-05,53.2172,254.1957,58.4602,301.6455,0.0002018,2.925e-05,0.0,0 STARLINK-5468,1 54777U 22175V   23155.53383224  .00002925  00000-0  20180-3 0  9995,2 54777  53.2172 254.1957 0000661  58.4602 301.6455 15.08840344 27575,6917.879,95.438,540.202,539.287,0.0
54777.0,STARLINK-5468,PAYLOAD,2023-06-04 15:59:29,15.08846751,7.16e-05,53.2162,253.6007,58.5507,301.5555,0.00027962,4.166e-05,0.0,0 STARLINK-5468,1 54777U 22175V   23155.66631060  .00004166  00000-0  27962-3 0  9997,2 54777  53.2162 253.6007 0000716  58.5507 301.5555 15.08846751 25431,6917.86,95.437,540.22,539.229,0.0
54777.0,STARLINK-5468,PAYLOAD,2023-06-05 06:17:57,15.08842091,8.2e-05,53.2154,250.9251,61.3529,298.7545,0.00022171,3.243e-05,0.0,0 STARLINK-5468,1 54777U 22175V   23156.26247216  .00003243  00000-0  22171-3 0  9992,2 54777  53.2154 250.9251 0000820  61.3529 298.7545 15.08842091 25524,6917.874,95.437,540.306,539.172,0.0
54777.0,STARLINK-5468,PAYLOAD,2023-06-05 12:39:29,15.08851798,6.03e-05,53.2159,249.734,77.4067,282.6993,0.00012687,1.733e-05,0.0,0 STARLINK-5468,1 54777U 22175V   23156.52742507  .00001733  00000-0  12687-3 0  9997,2 54777  53.2159 249.7340 0000603  77.4067 282.6993 15.08851798 27725,6917.844,95.437,540.126,539.292,0.0
54777.0,STARLINK-5468,PAYLOAD,2023-06-05 15:50:15,15.08852382,6.13e-05,53.2157,249.1396,67.8332,292.2725,0.00014394,2.005e-05,0.0,0 STARLINK-5468,1 54777U 22175V   23156.65990420  .00002005  00000-0  14394-3 0  9990,2 54777  53.2157 249.1396 0000613  67.8332 292.2725 15.08852382 27749,6917.843,95.437,540.132,539.283,0.0
